#aV2013  7 18  0  0  0.00000000     288 DD+AD WGS84 FIT  NGA
## 1749 345600.00000000   300.00000000 56491 0.0000000000000
+   31     1  2  3  4  5  6  7  8  9 10 11 12 13 14 15 16 17
+         18 19 20 21 22 23 24 25 26 27 28 29 31 32  0  0  0
+          0  0  0  0  0  0  0  0  0  0  0  0  0  0  0  0  0
+          0  0  0  0  0  0  0  0  0  0  0  0  0  0  0  0  0
+          0  0  0  0  0  0  0  0  0  0  0  0  0  0  0  0  0
++         2  2  2  2  2  2  2  2  2  2  2  2  2  2  2  2  2
++         2  2  2  2  2  2  2  2  2  2  2  2  2  2  2  0  0
++         0  0  0  0  0  0  0  0  0  0  0  0  0  0  0  0  0
++         0  0  0  0  0  0  0  0  0  0  0  0  0  0  0  0  0
++         0  0  0  0  0  0  0  0  0  0  0  0  0  0  0  0  0
%c cc cc ccc ccc cccc cccc cccc cccc ccccc ccccc ccccc ccccc
%c cc cc ccc ccc cccc cccc cccc cccc ccccc ccccc ccccc ccccc
%f  0.0000000  0.000000000  0.00000000000  0.000000000000000
%f  0.0000000  0.000000000  0.00000000000  0.000000000000000
%i    0    0    0    0      0      0      0      0         0
%i    0    0    0    0      0      0      0      0         0
/*      NGA, ST. LOUIS,MO.                                  
/*   EPHEMERIS COMPUTED FROM  1 DAYS OF DATA
/*   EPOCHA SMOOTHER  
/* CCCCCCCCCCCCCCCCCCCCCCCCCCCCCCCCCCCCCCCCCCCCCCCCCCCCCCCCC
*  2013  7 18 11 40  0.00000000                                                 
P  1 -21417.087702 -11285.662691  11019.881120     51.586139                    
V  1  -7931.272454 -11767.710401 -27320.504214      0.050714                    
P  2  11253.151665  22084.317312  10429.241268    442.301923                    
V  2 -10903.725382  -7197.210406  27082.461921      0.017939                    
P  3  -9984.690875 -13020.404847 -21438.190354    234.230230                    
V  3  24021.561948 -10169.231571  -4930.772952      0.049427                    
P  4    285.187023  19223.238714  17922.519660    275.534818                    
V  4 -17868.311078 -15431.397380  16845.105871      0.103450                    
P  5   3926.040100  22255.737127 -13861.005389   -398.721918                    
V  5  -7363.139448  16242.750970  24179.671896     -0.004590                    
P  6  -2964.975891 -15362.100548 -21372.893367    136.931203                    
V  6  26268.690384  -7806.879697   2334.336653     -0.180545                    
P  7 -16638.319993   2500.410221 -20582.348410    237.391686                    
V  7 -17157.580436 -19702.319160  11145.608005      0.042244                    
P  8  -9083.520196  11479.610609 -21988.128877      7.469983                    
V  8 -17459.879421 -22115.519014  -4893.814646      0.002114                    
P  9  -4864.550887  15560.451912 -21487.284771    255.303983                    
V  9 -18415.722170 -18341.630056  -9453.940130      0.025892                    
P 10  -8506.841125  24881.497237   1047.123610    -87.381881                    
V 10  -3088.285763  -2737.077398  31589.821410     -0.012797                    
P 11 -23478.241515 -12688.907546    423.812239   -401.908791                    
V 11   1422.763919  -4714.585792 -29923.062218     -0.035399                    
P 12  12516.594008   8394.828559  21843.991420    145.459995                    
V 12  -8866.585593  26300.778076  -4818.074486      0.021037                    
P 13 -26114.793163   4937.542629  -1923.042360     98.809353                    
V 13  -2521.383959  -1703.272593  31987.731487     -0.037168                    
P 14  13771.127920 -14482.928795  17623.014043    219.204634                    
V 14  21934.718941  -2224.627240 -19342.028027     -0.004800                    
P 15  21631.872634   5177.780830 -14737.596900   -128.144865                    
V 15 -17316.716964   7210.799237 -22669.122765     -0.017070                    
P 16  -2180.842325 -22228.358345 -14135.163425   -250.027033                    
V 16   7609.472689 -16396.900317  24988.579652      0.005152                    
P 17 -14731.525499  14678.596926  16603.774865     -2.166555                    
V 17 -20697.962839   2333.669373 -20932.608974     -0.038847                    
P 18  15608.117592 -15524.516826 -14188.966586    264.242848                    
V 18  -2191.382200  19117.137246 -23012.294555      0.018989                    
P 19 -18005.437784  -9528.152616 -17370.415083   -389.712710                    
V 19  21245.587164  -4560.537566 -19215.524301     -0.029482                    
P 20 -15848.173492  -1623.606312  21077.313285    110.093367                    
V 20   5879.827651 -26663.390320   2420.276860      0.022963                    
P 21  14898.363197  -6486.431022 -20504.894625   -308.969362                    
V 21  18522.022000  20201.687218   6366.328337     -0.019789                    
P 22  10534.498873 -23835.665892  -4504.508737    176.125302                    
V 22   2165.649722   6912.708686 -30309.735900      0.017187                    
P 23 -25447.469815   -184.708401   8380.245238     65.846572                    
V 23   9609.722418  -4709.951994  28957.128739     -0.035470                    
P 24  21205.579957  14083.955774   7642.857471    -10.188894                    
V 24   4863.705914   8820.964255 -29660.186303     -0.006053                    
P 25  16064.272690  -7101.268614  19835.151626    123.817508                    
V 25  -5896.723102  24636.871617  13650.546923      0.051366                    
P 26   8197.286899  13696.606517 -21921.789675    102.033919                    
V 26 -25904.364265   4083.998642  -7036.455679      0.167715                    
P 27  -6752.464424 -13890.947797 -21615.051377    -12.316146                    
V 27  26543.510965  -6922.702508  -3835.803718     -0.048873                    
P 28 -12835.756349  21799.023459  -7202.009523    276.720116                    
V 28   1228.806837 -10131.194561 -30580.860650      0.030807                    
P 29  26112.641868  -4696.197582    483.394359    454.547283                    
V 29    -44.216679   2725.446596  31911.206059      0.033032                    
P 31   -861.168164 -19224.833122  18346.466643    321.031661                    
V 31  16474.000258  16121.875024  18101.183994      0.010622                    
P 32 -11120.117441 -12584.392123  20806.451443   -557.925175                    
V 32  10030.856278 -24070.629168  -8730.331938      0.008614                    
EOF
